{
  "type": "FeatureCollection",
  "features": [
    {
      "type": "Feature",
      "properties": {
        "norad_id": 34088,
        "name": "IRIDIUM 33 DEB",
        "group": "iridium-33-debris",
        "lat": 28.363914120119123,
        "lon": -157.87859075067138,
        "alt_km": 585.7154738083445,
        "timestamp": "2025-12-27T04:40:45.889920+00:00",
        "meta_object_name": "IRIDIUM 33 DEB",
        "meta_object_id": "1997-051CX",
        "meta_epoch": "2025-12-26T14:04:54.130368",
        "meta_mean_motion": 14.92012615,
        "meta_eccentricity": 0.000718,
        "meta_inclination": 86.3846,
        "meta_ra_of_asc_node": 24.3573,
        "meta_arg_of_pericenter": 134.1016,
        "meta_mean_anomaly": 352.4907,
        "meta_ephemeris_type": 0,
        "meta_classification_type": "U",
        "meta_norad_cat_id": 34088,
        "meta_element_set_no": 999,
        "meta_rev_at_epoch": 88948,
        "meta_bstar": 0.0024249,
        "meta_mean_motion_dot": 0.00024675,
        "meta_mean_motion_ddot": 0,
        "tle_line1": "1 34088U 97051CX  25360.58673762  .00024675  00000+0  24249-2 0  9991",
        "tle_line2": "2 34088  86.3846  24.3573 0007180 134.1016 352.4907 14.92012615889484"
      },
      "geometry": {
        "type": "Point",
        "coordinates": [
          -157.87859075067138,
          28.363914120119123
        ]
      }
    },
    {
      "type": "Feature",
      "properties": {
        "norad_id": 34091,
        "name": "IRIDIUM 33 DEB",
        "group": "iridium-33-debris",
        "lat": -30.50587219074989,
        "lon": -117.63091962012965,
        "alt_km": 605.687381323336,
        "timestamp": "2025-12-27T04:40:45.889930+00:00",
        "meta_object_name": "IRIDIUM 33 DEB",
        "meta_object_id": "1997-051DA",
        "meta_epoch": "2025-12-26T21:15:09.157824",
        "meta_mean_motion": 14.82875127,
        "meta_eccentricity": 0.00343132,
        "meta_inclination": 86.3406,
        "meta_ra_of_asc_node": 60.3501,
        "meta_arg_of_pericenter": 242.6153,
        "meta_mean_anomaly": 117.1577,
        "meta_ephemeris_type": 0,
        "meta_classification_type": "U",
        "meta_norad_cat_id": 34091,
        "meta_element_set_no": 999,
        "meta_rev_at_epoch": 88076,
        "meta_bstar": 0.005713469,
        "meta_mean_motion_dot": 0.00047038,
        "meta_mean_motion_ddot": 0,
        "tle_line1": "1 34091U 97051DA  25360.88552266  .00047038  00000+0  57135-2 0  9991",
        "tle_line2": "2 34091  86.3406  60.3501 0034313 242.6153 117.1577 14.82875127880761"
      },
      "geometry": {
        "type": "Point",
        "coordinates": [
          -117.63091962012965,
          -30.50587219074989
        ]
      }
    },
    {
      "type": "Feature",
      "properties": {
        "norad_id": 34097,
        "name": "IRIDIUM 33 DEB",
        "group": "iridium-33-debris",
        "lat": 29.72908433167779,
        "lon": 172.8516699469638,
        "alt_km": 829.9581641364039,
        "timestamp": "2025-12-27T04:40:45.889941+00:00",
        "meta_object_name": "IRIDIUM 33 DEB",
        "meta_object_id": "1997-051DG",
        "meta_epoch": "2025-12-26T22:57:25.331616",
        "meta_mean_motion": 14.34897502,
        "meta_eccentricity": 0.00811652,
        "meta_inclination": 86.2009,
        "meta_ra_of_asc_node": 355.1315,
        "meta_arg_of_pericenter": 315.5596,
        "meta_mean_anomaly": 43.9106,
        "meta_ephemeris_type": 0,
        "meta_classification_type": "U",
        "meta_norad_cat_id": 34097,
        "meta_element_set_no": 999,
        "meta_rev_at_epoch": 87323,
        "meta_bstar": 0.0019361756,
        "meta_mean_motion_dot": 5.728e-05,
        "meta_mean_motion_ddot": 0,
        "tle_line1": "1 34097U 97051DG  25360.95654319  .00005728  00000+0  19362-2 0  9997",
        "tle_line2": "2 34097  86.2009 355.1315 0081165 315.5596  43.9106 14.34897502873237"
      },
      "geometry": {
        "type": "Point",
        "coordinates": [
          172.8516699469638,
          29.72908433167779
        ]
      }
    },
    {
      "type": "Feature",
      "properties": {
        "norad_id": 34145,
        "name": "IRIDIUM 33 DEB",
        "group": "iridium-33-debris",
        "lat": 86.21004753431586,
        "lon": 56.80541604801466,
        "alt_km": 713.7348236650278,
        "timestamp": "2025-12-27T04:40:45.889951+00:00",
        "meta_object_name": "IRIDIUM 33 DEB",
        "meta_object_id": "1997-051DY",
        "meta_epoch": "2025-12-26T14:56:53.035584",
        "meta_mean_motion": 14.42393887,
        "meta_eccentricity": 0.0055399,
        "meta_inclination": 86.2128,
        "meta_ra_of_asc_node": 326.3433,
        "meta_arg_of_pericenter": 49.7595,
        "meta_mean_anomaly": 310.8432,
        "meta_ephemeris_type": 0,
        "meta_classification_type": "U",
        "meta_norad_cat_id": 34145,
        "meta_element_set_no": 999,
        "meta_rev_at_epoch": 87838,
        "meta_bstar": 0.0014608,
        "meta_mean_motion_dot": 4.939e-05,
        "meta_mean_motion_ddot": 0,
        "tle_line1": "1 34145U 97051DY  25360.62283606  .00004939  00000+0  14608-2 0  9993",
        "tle_line2": "2 34145  86.2128 326.3433 0055399  49.7595 310.8432 14.42393887878384"
      },
      "geometry": {
        "type": "Point",
        "coordinates": [
          56.80541604801466,
          86.21004753431586
        ]
      }
    },
    {
      "type": "Feature",
      "properties": {
        "norad_id": 34146,
        "name": "IRIDIUM 33 DEB",
        "group": "iridium-33-debris",
        "lat": 77.36241173438263,
        "lon": 0.26110166808037144,
        "alt_km": 722.5996418537652,
        "timestamp": "2025-12-27T04:40:45.889962+00:00",
        "meta_object_name": "IRIDIUM 33 DEB",
        "meta_object_id": "1997-051DZ",
        "meta_epoch": "2025-12-26T05:10:53.931072",
        "meta_mean_motion": 14.49135058,
        "meta_eccentricity": 0.0027049,
        "meta_inclination": 86.2845,
        "meta_ra_of_asc_node": 343.8464,
        "meta_arg_of_pericenter": 175.3009,
        "meta_mean_anomaly": 198.4852,
        "meta_ephemeris_type": 0,
        "meta_classification_type": "U",
        "meta_norad_cat_id": 34146,
        "meta_element_set_no": 999,
        "meta_rev_at_epoch": 88302,
        "meta_bstar": 0.00092782,
        "meta_mean_motion_dot": 3.563e-05,
        "meta_mean_motion_ddot": 0,
        "tle_line1": "1 34146U 97051DZ  25360.21590198  .00003563  00000+0  92782-3 0  9998",
        "tle_line2": "2 34146  86.2845 343.8464 0027049 175.3009 198.4852 14.49135058883020"
      },
      "geometry": {
        "type": "Point",
        "coordinates": [
          0.26110166808037144,
          77.36241173438263
        ]
      }
    },
    {
      "type": "Feature",
      "properties": {
        "norad_id": 34159,
        "name": "IRIDIUM 33 DEB",
        "group": "iridium-33-debris",
        "lat": -36.61225393804522,
        "lon": 39.35780834670239,
        "alt_km": 768.5514071294638,
        "timestamp": "2025-12-27T04:40:45.889972+00:00",
        "meta_object_name": "IRIDIUM 33 DEB",
        "meta_object_id": "1997-051EN",
        "meta_epoch": "2025-12-26T02:08:20.180544",
        "meta_mean_motion": 14.38525461,
        "meta_eccentricity": 0.00262795,
        "meta_inclination": 86.3493,
        "meta_ra_of_asc_node": 42.5483,
        "meta_arg_of_pericenter": 240.6679,
        "meta_mean_anomaly": 119.1893,
        "meta_ephemeris_type": 0,
        "meta_classification_type": "U",
        "meta_norad_cat_id": 34159,
        "meta_element_set_no": 999,
        "meta_rev_at_epoch": 88151,
        "meta_bstar": 0.00037825721,
        "meta_mean_motion_dot": 1.179e-05,
        "meta_mean_motion_ddot": 0,
        "tle_line1": "1 34159U 97051EN  25360.08912246  .00001179  00000+0  37826-3 0  9998",
        "tle_line2": "2 34159  86.3493  42.5483 0026279 240.6679 119.1893 14.38525461881517"
      },
      "geometry": {
        "type": "Point",
        "coordinates": [
          39.35780834670239,
          -36.61225393804522
        ]
      }
    },
    {
      "type": "Feature",
      "properties": {
        "norad_id": 34350,
        "name": "IRIDIUM 33 DEB",
        "group": "iridium-33-debris",
        "lat": -10.334727052661952,
        "lon": -4.136955529746081,
        "alt_km": 748.1281122265464,
        "timestamp": "2025-12-27T04:40:45.889983+00:00",
        "meta_object_name": "IRIDIUM 33 DEB",
        "meta_object_id": "1997-051ES",
        "meta_epoch": "2025-12-26T11:11:35.511072",
        "meta_mean_motion": 14.45418943,
        "meta_eccentricity": 0.0023531,
        "meta_inclination": 86.3274,
        "meta_ra_of_asc_node": 356.8502,
        "meta_arg_of_pericenter": 93.2383,
        "meta_mean_anomaly": 67.9711,
        "meta_ephemeris_type": 0,
        "meta_classification_type": "U",
        "meta_norad_cat_id": 34350,
        "meta_element_set_no": 999,
        "meta_rev_at_epoch": 88491,
        "meta_bstar": 0.00036255,
        "meta_mean_motion_dot": 1.3e-05,
        "meta_mean_motion_ddot": 0,
        "tle_line1": "1 34350U 97051ES  25360.46638323  .00001300  00000+0  36255-3 0  9995",
        "tle_line2": "2 34350  86.3274 356.8502 0023531  93.2383  67.9711 14.45418943884912"
      },
      "geometry": {
        "type": "Point",
        "coordinates": [
          -4.136955529746081,
          -10.334727052661952
        ]
      }
    }
  ]
}